FENGYUN 1C DEB          
1 38142U 99025EQP 17344.41069658  .00001437  00000-0  38367-3 0  9996
2 38142  98.6266  47.5303 0097589  28.9289 331.7263 14.47194078372681
